{
  "type": "FeatureCollection",
  "features": [
    {
      "type": "Feature",
      "properties": {
        "norad_id": 66612,
        "name": "STARLINK-36039",
        "group": "last-30-days",
        "lat": 14.348074634110107,
        "lon": -14.605567804868853,
        "alt_km": 442.2400103602731,
        "timestamp": "2025-12-14T16:47:39.437282+00:00",
        "meta_object_name": "STARLINK-36039",
        "meta_object_id": "2025-270AA",
        "meta_epoch": "2025-12-13T20:00:03.000384",
        "meta_mean_motion": 15.40635828,
        "meta_eccentricity": 0.00019203,
        "meta_inclination": 42.9996,
        "meta_ra_of_asc_node": 186.3204,
        "meta_arg_of_pericenter": 266.8394,
        "meta_mean_anomaly": 120.677,
        "meta_ephemeris_type": 0,
        "meta_classification_type": "U",
        "meta_norad_cat_id": 66612,
        "meta_element_set_no": 999,
        "meta_rev_at_epoch": 457,
        "meta_bstar": 0.0011433599,
        "meta_mean_motion_dot": 0.00047655,
        "meta_mean_motion_ddot": 0,
        "tle_line1": "1 66612U 25270AA  25347.83336806  .00047655  00000+0  11434-2 0  9996",
        "tle_line2": "2 66612  42.9996 186.3204 0001920 266.8394 120.6770 15.40635828  4577"
      },
      "geometry": {
        "type": "Point",
        "coordinates": [
          -14.605567804868853,
          14.348074634110107
        ]
      }
    },
    {
      "type": "Feature",
      "properties": {
        "norad_id": 66613,
        "name": "STARLINK-36037",
        "group": "last-30-days",
        "lat": -2.7438888520269478,
        "lon": 4.215600427131664,
        "alt_km": 444.516143020488,
        "timestamp": "2025-12-14T16:47:39.437294+00:00",
        "meta_object_name": "STARLINK-36037",
        "meta_object_id": "2025-270AB",
        "meta_epoch": "2025-12-13T20:00:03.000384",
        "meta_mean_motion": 15.43657049,
        "meta_eccentricity": 0.00019949,
        "meta_inclination": 42.9999,
        "meta_ra_of_asc_node": 186.2709,
        "meta_arg_of_pericenter": 259.2333,
        "meta_mean_anomaly": 149.4144,
        "meta_ephemeris_type": 0,
        "meta_classification_type": "U",
        "meta_norad_cat_id": 66613,
        "meta_element_set_no": 999,
        "meta_rev_at_epoch": 457,
        "meta_bstar": -0.042435608,
        "meta_mean_motion_dot": -0.01769377,
        "meta_mean_motion_ddot": 0,
        "tle_line1": "1 66613U 25270AB  25347.83336806 -.01769377  00000+0 -42436-1 0  9997",
        "tle_line2": "2 66613  42.9999 186.2709 0001994 259.2333 149.4144 15.43657049  4576"
      },
      "geometry": {
        "type": "Point",
        "coordinates": [
          4.215600427131664,
          -2.7438888520269478
        ]
      }
    },
    {
      "type": "Feature",
      "properties": {
        "norad_id": 66614,
        "name": "STARLINK-36040",
        "group": "last-30-days",
        "lat": -33.055989280082855,
        "lon": 45.44408339028842,
        "alt_km": 417.16663468754905,
        "timestamp": "2025-12-14T16:47:39.437307+00:00",
        "meta_object_name": "STARLINK-36040",
        "meta_object_id": "2025-270AC",
        "meta_epoch": "2025-12-13T20:00:03.000384",
        "meta_mean_motion": 15.50520492,
        "meta_eccentricity": 0.0001412,
        "meta_inclination": 42.9997,
        "meta_ra_of_asc_node": 186.214,
        "meta_arg_of_pericenter": 271.594,
        "meta_mean_anomaly": 159.472,
        "meta_ephemeris_type": 0,
        "meta_classification_type": "U",
        "meta_norad_cat_id": 66614,
        "meta_element_set_no": 999,
        "meta_rev_at_epoch": 441,
        "meta_bstar": 0.00083846804,
        "meta_mean_motion_dot": 0.00049053,
        "meta_mean_motion_ddot": 0,
        "tle_line1": "1 66614U 25270AC  25347.83336806  .00049053  00000+0  83847-3 0  9990",
        "tle_line2": "2 66614  42.9997 186.2140 0001412 271.5940 159.4720 15.50520492  4413"
      },
      "geometry": {
        "type": "Point",
        "coordinates": [
          45.44408339028842,
          -33.055989280082855
        ]
      }
    },
    {
      "type": "Feature",
      "properties": {
        "norad_id": 66615,
        "name": "STARLINK-35988",
        "group": "last-30-days",
        "lat": -23.484332990333257,
        "lon": 28.981359733381996,
        "alt_km": 434.5605947372178,
        "timestamp": "2025-12-14T16:47:39.437317+00:00",
        "meta_object_name": "STARLINK-35988",
        "meta_object_id": "2025-270AD",
        "meta_epoch": "2025-12-13T20:00:03.000384",
        "meta_mean_motion": 15.48240848,
        "meta_eccentricity": 0.00014961,
        "meta_inclination": 42.9998,
        "meta_ra_of_asc_node": 186.225,
        "meta_arg_of_pericenter": 277.1886,
        "meta_mean_anomaly": 149.7814,
        "meta_ephemeris_type": 0,
        "meta_classification_type": "U",
        "meta_norad_cat_id": 66615,
        "meta_element_set_no": 999,
        "meta_rev_at_epoch": 441,
        "meta_bstar": -0.043021939,
        "meta_mean_motion_dot": -0.02066252,
        "meta_mean_motion_ddot": 0,
        "tle_line1": "1 66615U 25270AD  25347.83336806 -.02066252  00000+0 -43022-1 0  9994",
        "tle_line2": "2 66615  42.9998 186.2250 0001496 277.1886 149.7814 15.48240848  4417"
      },
      "geometry": {
        "type": "Point",
        "coordinates": [
          28.981359733381996,
          -23.484332990333257
        ]
      }
    },
    {
      "type": "Feature",
      "properties": {
        "norad_id": 66616,
        "name": "STARLINK-35391",
        "group": "last-30-days",
        "lat": -34.015722279016614,
        "lon": 47.54955333083022,
        "alt_km": 416.94420545810226,
        "timestamp": "2025-12-14T16:47:39.437327+00:00",
        "meta_object_name": "STARLINK-35391",
        "meta_object_id": "2025-270AE",
        "meta_epoch": "2025-12-13T20:00:03.000384",
        "meta_mean_motion": 15.50518485,
        "meta_eccentricity": 0.00015008,
        "meta_inclination": 42.9997,
        "meta_ra_of_asc_node": 186.21,
        "meta_arg_of_pericenter": 267.8991,
        "meta_mean_anomaly": 165.0824,
        "meta_ephemeris_type": 0,
        "meta_classification_type": "U",
        "meta_norad_cat_id": 66616,
        "meta_element_set_no": 999,
        "meta_rev_at_epoch": 468,
        "meta_bstar": 0.0014422681,
        "meta_mean_motion_dot": 0.0008501,
        "meta_mean_motion_ddot": 0,
        "tle_line1": "1 66616U 25270AE  25347.83336806  .00085010  00000+0  14423-2 0  9998",
        "tle_line2": "2 66616  42.9997 186.2100 0001500 267.8991 165.0824 15.50518485  4689"
      },
      "geometry": {
        "type": "Point",
        "coordinates": [
          47.54955333083022,
          -34.015722279016614
        ]
      }
    },
    {
      "type": "Feature",
      "properties": {
        "norad_id": 66617,
        "name": "STARLINK-35940",
        "group": "last-30-days",
        "lat": -31.665871919010836,
        "lon": 25.416869286305072,
        "alt_km": 433.8191980084084,
        "timestamp": "2025-12-14T16:47:39.437339+00:00",
        "meta_object_name": "STARLINK-35940",
        "meta_object_id": "2025-271A",
        "meta_epoch": "2025-12-13T20:00:03.000384",
        "meta_mean_motion": 15.49345118,
        "meta_eccentricity": 7.571e-05,
        "meta_inclination": 53.1598,
        "meta_ra_of_asc_node": 182.005,
        "meta_arg_of_pericenter": 100.4786,
        "meta_mean_anomaly": 331.1592,
        "meta_ephemeris_type": 0,
        "meta_classification_type": "U",
        "meta_norad_cat_id": 66617,
        "meta_element_set_no": 999,
        "meta_rev_at_epoch": 441,
        "meta_bstar": -0.040966632,
        "meta_mean_motion_dot": -0.02033545,
        "meta_mean_motion_ddot": 0,
        "tle_line1": "1 66617U 25271A   25347.83336806 -.02033545  00000+0 -40967-1 0  9991",
        "tle_line2": "2 66617  53.1598 182.0050 0000757 100.4786 331.1592 15.49345118  4414"
      },
      "geometry": {
        "type": "Point",
        "coordinates": [
          25.416869286305072,
          -31.665871919010836
        ]
      }
    },
    {
      "type": "Feature",
      "properties": {
        "norad_id": 66618,
        "name": "STARLINK-35970",
        "group": "last-30-days",
        "lat": -51.97337366933019,
        "lon": 104.2748860179711,
        "alt_km": 423.5803598754155,
        "timestamp": "2025-12-14T16:47:39.437349+00:00",
        "meta_object_name": "STARLINK-35970",
        "meta_object_id": "2025-271B",
        "meta_epoch": "2025-12-13T20:00:03.000384",
        "meta_mean_motion": 15.49299793,
        "meta_eccentricity": 7.164e-05,
        "meta_inclination": 53.1598,
        "meta_ra_of_asc_node": 181.8923,
        "meta_arg_of_pericenter": 56.9092,
        "meta_mean_anomaly": 67.9735,
        "meta_ephemeris_type": 0,
        "meta_classification_type": "U",
        "meta_norad_cat_id": 66618,
        "meta_element_set_no": 999,
        "meta_rev_at_epoch": 441,
        "meta_bstar": 0.0012699112,
        "meta_mean_motion_dot": 0.00070798,
        "meta_mean_motion_ddot": 0,
        "tle_line1": "1 66618U 25271B   25347.83336806  .00070798  00000+0  12699-2 0  9991",
        "tle_line2": "2 66618  53.1598 181.8923 0000716  56.9092  67.9735 15.49299793  4411"
      },
      "geometry": {
        "type": "Point",
        "coordinates": [
          104.2748860179711,
          -51.97337366933019
        ]
      }
    }
  ]
}